OBJECT_NAME,OBJECT_ID,EPOCH,MEAN_MOTION,ECCENTRICITY,INCLINATION,RA_OF_ASC_NODE,ARG_OF_PERICENTER,MEAN_ANOMALY,EPHEMERIS_TYPE,CLASSIFICATION_TYPE,NORAD_CAT_ID,ELEMENT_SET_NO,REV_AT_EPOCH,BSTAR,MEAN_MOTION_DOT,MEAN_MOTION_DDOT
LARES-2,2022-080A,2026-05-07T03:52:33.796992,6.38965197,.0005357,70.1704,319.3995,343.8104,16.2342,0,U,53105,999,8904,0,-.8E-7,0
GREENCUBE (IO-117),2022-080E,2026-05-14T09:52:07.467456,6.42583317,.0008807,70.1435,309.9963,297.4178,62.5586,0,U,53109,999,8989,0,-.3E-7,0
STARLINK-4410,2022-084R,2026-05-15T00:00:02.000160,15.17652910,.00021504,97.6020,195.6136,37.1952,321.8412,0,U,53204,999,574,.34779287E-2,.70574E-3,0
COSMOS 2558,2022-089A,2026-05-14T03:34:02.932320,15.68856496,.0002677,97.2255,237.0029,172.7139,187.4162,0,U,53323,999,21248,.5768E-3,.66331E-3,0
TECMS,2022-090A,2026-05-14T22:39:23.269248,15.21443427,.00015841,97.3150,203.9907,334.0827,26.0329,0,U,53346,999,20975,.10664829E-3,.2328E-4,0
DONGPO 02,2022-098J,2026-05-14T22:28:45.886944,15.68623138,.00023877,97.5474,263.4242,117.7709,242.3795,0,U,53452,999,20957,.46702795E-3,.53087E-3,0
DONGPO 01,2022-098K,2026-05-14T22:50:31.751232,15.67028495,.00008305,97.5539,264.0358,151.5871,208.5435,0,U,53453,999,20954,.46295467E-3,.493E-3,0
STARLINK-4400,2022-099D,2026-05-14T14:48:23.167584,15.05654750,.00002245,97.4953,254.9258,157.7311,202.3926,0,U,53468,999,20589,-.35916062E-4,-.577E-5,0
STARLINK-4621,2022-105AE,2026-05-14T10:05:16.732320,15.05657912,.00027501,97.5014,14.7449,67.2275,292.9242,0,U,53676,999,20312,.81563707E-4,.1118E-4,0
SHERPA-LTC2,2022-107BG,2026-05-14T15:43:43.813344,14.69197830,.03976156,53.2348,2.2398,132.3235,231.2157,0,U,53754,999,19761,.22993313E-3,.441E-4,0
CENTISPACE-1 S3,2022-108A,2026-05-14T16:35:25.218240,14.61220435,.00082082,53.5318,193.7636,252.6531,107.3547,0,U,53757,999,19663,.6747283E-4,.146E-5,0
CENTISPACE-1 S4,2022-108B,2026-05-14T23:08:56.520384,14.61893708,.00079251,53.5292,190.3079,239.0364,120.9834,0,U,53758,999,19670,.8024163E-4,.214E-5,0
BLUEWALKER-3,2022-111AL,2026-05-14T10:54:26.796384,15.37847956,.00074266,53.2285,192.2820,73.7950,286.3872,0,U,53807,999,20501,.10056453E-3,.3405E-4,0
YUNHAI-1 03,2022-115A,2026-05-14T22:40:10.652736,14.32694478,.00055573,98.5536,133.5151,134.2213,225.9428,0,U,53877,999,19075,.10969928E-3,.255E-5,0
CENTISPACE-1 S5,2022-126A,2026-05-14T22:42:39.632256,14.62950592,.00125346,55.0000,345.9733,6.9473,353.1692,0,U,54020,999,19217,.12476809E-3,.455E-5,0
CENTISPACE-1 S6,2022-126B,2026-05-14T22:09:21.246912,14.62240371,.00143735,55.0003,347.7783,5.7736,354.3421,0,U,54021,999,19213,.10880344E-3,.364E-5,0
OTB-3-GAZELLE,2022-127A,2026-05-14T10:07:37.356960,14.42661758,.00119228,98.3942,126.6426,293.0390,66.9542,0,U,54023,999,18949,.40588026E-4,.92E-6,0
ASO-S,2022-129A,2026-05-14T23:18:10.963008,14.52044508,.00140372,98.2755,140.5271,189.4894,170.6038,0,U,54029,999,19060,.39818319E-4,.116E-5,0
HJ-2E,2022-132A,2026-05-14T22:52:30.039744,15.21792374,.00224412,97.3802,139.9425,123.3620,236.9768,0,U,54035,999,19936,.23069683E-3,.5201E-4,0
COSMOS 2561,2022-137A,2026-05-14T03:59:55.028832,15.50811886,.0011193,96.9223,194.4544,143.4457,216.7562,0,U,54109,999,20107,.16688E-3,.9558E-4,0
GONETS-M 23,2022-139A,2026-05-14T22:29:20.751936,12.42889249,.0020722,82.5096,8.9595,296.1128,63.7820,0,U,54150,999,16151,.18777782E-3,.36E-6,0
GONETS-M 24,2022-139B,2026-05-14T23:46:33.551904,12.42889877,.00160973,82.5012,8.0089,307.4799,52.4817,0,U,54151,999,16152,.19926426E-3,.37E-6,0
GONETS-M 25,2022-139C,2026-05-14T23:26:54.249792,12.42889083,.00199818,82.5072,8.6857,305.3224,54.5987,0,U,54152,999,16152,.17845549E-3,.34E-6,0
SKIF-D,2022-139D,2026-05-13T11:33:11.847168,5.00438534,.0007415,89.9555,96.6781,214.6423,145.3442,0,U,54153,999,6237,0,.28E-6,0
MATS,2022-147A,2026-05-14T21:03:22.277088,15.05140137,.00112828,97.6832,136.6245,318.8078,41.2296,0,U,54227,999,19275,.17497878E-3,.2432E-4,0
JILIN-1 GAOFEN 03D54,2022-155D,2026-05-14T21:55:22.944864,15.83310712,.00017523,97.6092,284.0399,168.9656,191.1652,0,U,54254,999,19501,.54267117E-3,.118103E-2,0
EOS-6 (OCEANSAT-3),2022-158A,2026-05-14T23:18:32.080032,14.47020195,.0002223,98.3513,233.6094,85.2398,274.9049,0,U,54361,999,18303,.53388563E-4,.151E-5,0
DONGPO 09,2022-167D,2026-05-14T22:09:49.567104,15.35567857,.00016353,97.6871,304.4720,211.1959,148.9187,0,U,54685,999,19034,.22067765E-3,.7543E-4,0
DONGPO 08,2022-167E,2026-05-14T21:53:04.685856,15.32964665,.00068671,97.6832,301.7934,286.3309,73.7177,0,U,54686,999,19022,.20344615E-3,.6397E-4,0
2022-167F,2022-167F,2026-05-14T23:11:15.224352,15.81371130,.00031088,97.6157,319.0869,173.7096,186.4211,0,U,54687,999,19156,.49321749E-3,.97882E-3,0
