LARES-2                 
1 53105U 22080A   26127.16150228 -.00000008  00000+0  00000+0 0  9996
2 53105  70.1704 319.3995 0005357 343.8104  16.2342  6.38965197 89040
GREENCUBE (IO-117)      
1 53109U 22080E   26134.41119754 -.00000003  00000+0  00000+0 0  9990
2 53109  70.1435 309.9963 0008807 297.4178  62.5586  6.42583317 89895
STARLINK-4410           
1 53204U 22084R   26135.00002315  .00070574  00000+0  34779-2 0  9992
2 53204  97.6020 195.6136 0002150  37.1952 321.8412 15.17652910  5740
COSMOS 2558             
1 53323U 22089A   26134.14864505  .00066331  00000+0  57680-3 0  9993
2 53323  97.2255 237.0029 0002677 172.7139 187.4162 15.68856496212487
TECMS                   
1 53346U 22090A   26134.94401932  .00002328  00000+0  10665-3 0  9997
2 53346  97.3150 203.9907 0001584 334.0827  26.0329 15.21443427209751
DONGPO 02               
1 53452U 22098J   26134.93664221  .00053087  00000+0  46703-3 0  9994
2 53452  97.5474 263.4242 0002387 117.7709 242.3795 15.68623138209570
DONGPO 01               
1 53453U 22098K   26134.95175638  .00049300  00000+0  46295-3 0  9995
2 53453  97.5539 264.0358 0000830 151.5871 208.5435 15.67028495209541
STARLINK-4400           
1 53468U 22099D   26134.61693481 -.00000577  00000+0 -35916-4 0  9990
2 53468  97.4953 254.9258 0000224 157.7311 202.3926 15.05654750205899
STARLINK-4621           
1 53676U 22105AE  26134.42033255  .00001118  00000+0  81564-4 0  9995
2 53676  97.5014  14.7449 0002750  67.2275 292.9242 15.05657912203126
SHERPA-LTC2             
1 53754U 22107BG  26134.65536821  .00004410  00000+0  22993-3 0  9994
2 53754  53.2348   2.2398 0397615 132.3235 231.2157 14.69197830197618
CENTISPACE-1 S3         
1 53757U 22108A   26134.69126410  .00000146  00000+0  67473-4 0  9996
2 53757  53.5318 193.7636 0008208 252.6531 107.3547 14.61220435196631
CENTISPACE-1 S4         
1 53758U 22108B   26134.96454306  .00000214  00000+0  80242-4 0  9990
2 53758  53.5292 190.3079 0007925 239.0364 120.9834 14.61893708196702
BLUEWALKER-3            
1 53807U 22111AL  26134.45447681  .00003405  00000+0  10056-3 0  9991
2 53807  53.2285 192.2820 0007426  73.7950 286.3872 15.37847956205013
YUNHAI-1 03             
1 53877U 22115A   26134.94456774  .00000255  00000+0  10970-3 0  9994
2 53877  98.5536 133.5151 0005557 134.2213 225.9428 14.32694478190757
CENTISPACE-1 S5         
1 54020U 22126A   26134.94629204  .00000455  00000+0  12477-3 0  9993
2 54020  55.0000 345.9733 0012534   6.9473 353.1692 14.62950592192173
CENTISPACE-1 S6         
1 54021U 22126B   26134.92316258  .00000364  00000+0  10880-3 0  9999
2 54021  55.0003 347.7783 0014373   5.7736 354.3421 14.62240371192130
OTB-3-GAZELLE           
1 54023U 22127A   26134.42196015  .00000092  00000+0  40588-4 0  9991
2 54023  98.3942 126.6426 0011922 293.0390  66.9542 14.42661758189496
ASO-S                   
1 54029U 22129A   26134.97096022  .00000116  00000+0  39818-4 0  9997
2 54029  98.2755 140.5271 0014037 189.4894 170.6038 14.52044508190600
HJ-2E                   
1 54035U 22132A   26134.95312546  .00005201  00000+0  23070-3 0  9990
2 54035  97.3802 139.9425 0022441 123.3620 236.9768 15.21792374199361
COSMOS 2561             
1 54109U 22137A   26134.16660913  .00009558  00000+0  16688-3 0  9990
2 54109  96.9223 194.4544 0011193 143.4457 216.7562 15.50811886201078
GONETS-M 23             
1 54150U 22139A   26134.93704574  .00000036  00000+0  18778-3 0  9999
2 54150  82.5096   8.9595 0020722 296.1128  63.7820 12.42889249161514
GONETS-M 24             
1 54151U 22139B   26134.99066611  .00000037  00000+0  19926-3 0  9996
2 54151  82.5012   8.0089 0016097 307.4799  52.4817 12.42889877161521
GONETS-M 25             
1 54152U 22139C   26134.97701678  .00000034  00000+0  17846-3 0  9990
2 54152  82.5072   8.6857 0019981 305.3224  54.5987 12.42889083161522
SKIF-D                  
1 54153U 22139D   26133.48138712  .00000028  00000+0  00000+0 0  9992
2 54153  89.9555  96.6781 0007415 214.6423 145.3442  5.00438534 62370
MATS                    
1 54227U 22147A   26134.87734117  .00002432  00000+0  17498-3 0  9992
2 54227  97.6832 136.6245 0011282 318.8078  41.2296 15.05140137192758
JILIN-1 GAOFEN 03D54    
1 54254U 22155D   26134.91346001  .00118103  00000+0  54267-3 0  9995
2 54254  97.6092 284.0399 0001752 168.9656 191.1652 15.83310712195018
EOS-6 (OCEANSAT-3)      
1 54361U 22158A   26134.97120463  .00000151  00000+0  53389-4 0  9993
2 54361  98.3513 233.6094 0002223  85.2398 274.9049 14.47020195183034
DONGPO 09               
1 54685U 22167D   26134.92349036  .00007543  00000+0  22068-3 0  9997
2 54685  97.6871 304.4720 0001635 211.1959 148.9187 15.35567857190348
DONGPO 08               
1 54686U 22167E   26134.91185979  .00006397  00000+0  20345-3 0  9993
2 54686  97.6832 301.7934 0006867 286.3309  73.7177 15.32964665190224
2022-167F               
1 54687U 22167F   26134.96614843  .00097882  00000+0  49322-3 0  9991
2 54687  97.6157 319.0869 0003108 173.7096 186.4211 15.81371130191563
